STARLINK-36426          
1 67560U 26014AA  26038.50001156  .00021389  00000+0  11224-3 0  9999
2 67560  97.2830 281.9325 0000988 110.3764 136.3052 15.80795592  2678
STARLINK-36621          
1 67561U 26016A   26038.50001156  .00110851  00000+0  57396-3 0  9995
2 67561  97.2834  97.3898 0001445  96.3132 272.8648 15.80746176  3197
STARLINK-36398          
1 67562U 26016B   26038.50001156 -.01852889  00000+0 -11114-1 0  9999
2 67562  97.2791  97.3920 0001737 110.0020 265.9085 15.80641703  3176
STARLINK-36403          
1 67563U 26016C   26038.50001156  .00216813  00000+0  11096-2 0  9998
2 67563  97.2834  97.3966 0001404  89.7800 292.0558 15.80718854  3295
STARLINK-36593          
1 67564U 26016D   26038.50001156  .00177613  00000+0  91345-3 0  9999
2 67564  97.2834  97.3993 0001564  86.5798 302.2477 15.80714587  3130
STARLINK-35725          
1 67565U 26016E   26038.50001156  .00154910  00000+0  79771-3 0  9994
2 67565  97.2834  97.4011 0001281  96.6622 297.3535 15.80746841  3189
STARLINK-36394          
1 67566U 26016F   26038.50001156  .00162865  00000+0  83677-3 0  9993
2 67566  97.2783  97.4082 0001579  97.2833 319.1109 15.80775446  3297
STARLINK-36352          
1 67567U 26016G   26038.50001156  .00137488  00000+0  70985-3 0  9995
2 67567  97.2782  97.4051 0001152 101.6080 308.0197 15.80736183  3192
STARLINK-36435          
1 67568U 26016H   26038.50001156  .00091659  00000+0  47566-3 0  9994
2 67568  97.2784  97.4110 0001154  95.5865 326.8431 15.80751000  3199
STARLINK-36575          
1 67569U 26016J   26038.50001156  .00211249  00000+0  10818-2 0  9993
2 67569  97.2819  97.4158 0000904  90.0325 339.2894 15.80721472  3195
STARLINK-36562          
1 67570U 26016K   26038.50001156  .00260918  00000+0  13300-2 0  9991
2 67570  97.2815  97.4171 0001153  88.9418 345.5551 15.80693598  3191
STARLINK-36578          
1 67571U 26016L   26038.50001156  .00210821  00000+0  10806-2 0  9998
2 67571  97.2816  97.4197 0001381 121.1014 319.3335 15.80700885  3171
