CCSDS_OMM_VERS = 2.0
CREATION_DATE  = 
ORIGINATOR     = 

OBJECT_NAME    = STARLINK-36426
OBJECT_ID      = 2026-014AA
CENTER_NAME    = EARTH
REF_FRAME      = TEME
TIME_SYSTEM    = UTC
MEAN_ELEMENT_THEORY = SGP/SGP4

EPOCH          = 2026-02-07T12:00:00.998784
MEAN_MOTION    = 15.80795592
ECCENTRICITY   = .0000988
INCLINATION    = 97.2830
RA_OF_ASC_NODE = 281.9325
ARG_OF_PERICENTER = 110.3764
MEAN_ANOMALY   = 136.3052

EPHEMERIS_TYPE = 0
CLASSIFICATION_TYPE = U
NORAD_CAT_ID   = 67560
ELEMENT_SET_NO = 999
REV_AT_EPOCH   = 267
BSTAR          = .11224E-3
MEAN_MOTION_DOT = .21389E-3
MEAN_MOTION_DDOT = 0

CCSDS_OMM_VERS = 2.0
CREATION_DATE  = 
ORIGINATOR     = 

OBJECT_NAME    = STARLINK-36621
OBJECT_ID      = 2026-016A
CENTER_NAME    = EARTH
REF_FRAME      = TEME
TIME_SYSTEM    = UTC
MEAN_ELEMENT_THEORY = SGP/SGP4

EPOCH          = 2026-02-07T12:00:00.998784
MEAN_MOTION    = 15.80746176
ECCENTRICITY   = .0001445
INCLINATION    = 97.2834
RA_OF_ASC_NODE = 97.3898
ARG_OF_PERICENTER = 96.3132
MEAN_ANOMALY   = 272.8648

EPHEMERIS_TYPE = 0
CLASSIFICATION_TYPE = U
NORAD_CAT_ID   = 67561
ELEMENT_SET_NO = 999
REV_AT_EPOCH   = 319
BSTAR          = .57396E-3
MEAN_MOTION_DOT = .110851E-2
MEAN_MOTION_DDOT = 0

CCSDS_OMM_VERS = 2.0
CREATION_DATE  = 
ORIGINATOR     = 

OBJECT_NAME    = STARLINK-36398
OBJECT_ID      = 2026-016B
CENTER_NAME    = EARTH
REF_FRAME      = TEME
TIME_SYSTEM    = UTC
MEAN_ELEMENT_THEORY = SGP/SGP4

EPOCH          = 2026-02-07T12:00:00.998784
MEAN_MOTION    = 15.80641703
ECCENTRICITY   = .0001737
INCLINATION    = 97.2791
RA_OF_ASC_NODE = 97.3920
ARG_OF_PERICENTER = 110.0020
MEAN_ANOMALY   = 265.9085

EPHEMERIS_TYPE = 0
CLASSIFICATION_TYPE = U
NORAD_CAT_ID   = 67562
ELEMENT_SET_NO = 999
REV_AT_EPOCH   = 317
BSTAR          = -.11114E-1
MEAN_MOTION_DOT = -.1852889E-1
MEAN_MOTION_DDOT = 0

CCSDS_OMM_VERS = 2.0
CREATION_DATE  = 
ORIGINATOR     = 

OBJECT_NAME    = STARLINK-36403
OBJECT_ID      = 2026-016C
CENTER_NAME    = EARTH
REF_FRAME      = TEME
TIME_SYSTEM    = UTC
MEAN_ELEMENT_THEORY = SGP/SGP4

EPOCH          = 2026-02-07T12:00:00.998784
MEAN_MOTION    = 15.80718854
ECCENTRICITY   = .0001404
INCLINATION    = 97.2834
RA_OF_ASC_NODE = 97.3966
ARG_OF_PERICENTER = 89.7800
MEAN_ANOMALY   = 292.0558

EPHEMERIS_TYPE = 0
CLASSIFICATION_TYPE = U
NORAD_CAT_ID   = 67563
ELEMENT_SET_NO = 999
REV_AT_EPOCH   = 329
BSTAR          = .11096E-2
MEAN_MOTION_DOT = .216813E-2
MEAN_MOTION_DDOT = 0

CCSDS_OMM_VERS = 2.0
CREATION_DATE  = 
ORIGINATOR     = 

OBJECT_NAME    = STARLINK-36593
OBJECT_ID      = 2026-016D
CENTER_NAME    = EARTH
REF_FRAME      = TEME
TIME_SYSTEM    = UTC
MEAN_ELEMENT_THEORY = SGP/SGP4

EPOCH          = 2026-02-07T12:00:00.998784
MEAN_MOTION    = 15.80714587
ECCENTRICITY   = .0001564
INCLINATION    = 97.2834
RA_OF_ASC_NODE = 97.3993
ARG_OF_PERICENTER = 86.5798
MEAN_ANOMALY   = 302.2477

EPHEMERIS_TYPE = 0
CLASSIFICATION_TYPE = U
NORAD_CAT_ID   = 67564
ELEMENT_SET_NO = 999
REV_AT_EPOCH   = 313
BSTAR          = .91345E-3
MEAN_MOTION_DOT = .177613E-2
MEAN_MOTION_DDOT = 0

CCSDS_OMM_VERS = 2.0
CREATION_DATE  = 
ORIGINATOR     = 

OBJECT_NAME    = STARLINK-35725
OBJECT_ID      = 2026-016E
CENTER_NAME    = EARTH
REF_FRAME      = TEME
TIME_SYSTEM    = UTC
MEAN_ELEMENT_THEORY = SGP/SGP4

EPOCH          = 2026-02-07T12:00:00.998784
MEAN_MOTION    = 15.80746841
ECCENTRICITY   = .0001281
INCLINATION    = 97.2834
RA_OF_ASC_NODE = 97.4011
ARG_OF_PERICENTER = 96.6622
MEAN_ANOMALY   = 297.3535

EPHEMERIS_TYPE = 0
CLASSIFICATION_TYPE = U
NORAD_CAT_ID   = 67565
ELEMENT_SET_NO = 999
REV_AT_EPOCH   = 318
BSTAR          = .79771E-3
MEAN_MOTION_DOT = .15491E-2
MEAN_MOTION_DDOT = 0

CCSDS_OMM_VERS = 2.0
CREATION_DATE  = 
ORIGINATOR     = 

OBJECT_NAME    = STARLINK-36394
OBJECT_ID      = 2026-016F
CENTER_NAME    = EARTH
REF_FRAME      = TEME
TIME_SYSTEM    = UTC
MEAN_ELEMENT_THEORY = SGP/SGP4

EPOCH          = 2026-02-07T12:00:00.998784
MEAN_MOTION    = 15.80775446
ECCENTRICITY   = .0001579
INCLINATION    = 97.2783
RA_OF_ASC_NODE = 97.4082
ARG_OF_PERICENTER = 97.2833
MEAN_ANOMALY   = 319.1109

EPHEMERIS_TYPE = 0
CLASSIFICATION_TYPE = U
NORAD_CAT_ID   = 67566
ELEMENT_SET_NO = 999
REV_AT_EPOCH   = 329
BSTAR          = .83677E-3
MEAN_MOTION_DOT = .162865E-2
MEAN_MOTION_DDOT = 0

CCSDS_OMM_VERS = 2.0
CREATION_DATE  = 
ORIGINATOR     = 

OBJECT_NAME    = STARLINK-36352
OBJECT_ID      = 2026-016G
CENTER_NAME    = EARTH
REF_FRAME      = TEME
TIME_SYSTEM    = UTC
MEAN_ELEMENT_THEORY = SGP/SGP4

EPOCH          = 2026-02-07T12:00:00.998784
MEAN_MOTION    = 15.80736183
ECCENTRICITY   = .0001152
INCLINATION    = 97.2782
RA_OF_ASC_NODE = 97.4051
ARG_OF_PERICENTER = 101.6080
MEAN_ANOMALY   = 308.0197

EPHEMERIS_TYPE = 0
CLASSIFICATION_TYPE = U
NORAD_CAT_ID   = 67567
ELEMENT_SET_NO = 999
REV_AT_EPOCH   = 319
BSTAR          = .70985E-3
MEAN_MOTION_DOT = .137488E-2
MEAN_MOTION_DDOT = 0

CCSDS_OMM_VERS = 2.0
CREATION_DATE  = 
ORIGINATOR     = 

OBJECT_NAME    = STARLINK-36435
OBJECT_ID      = 2026-016H
CENTER_NAME    = EARTH
REF_FRAME      = TEME
TIME_SYSTEM    = UTC
MEAN_ELEMENT_THEORY = SGP/SGP4

EPOCH          = 2026-02-07T12:00:00.998784
MEAN_MOTION    = 15.80751000
ECCENTRICITY   = .0001154
INCLINATION    = 97.2784
RA_OF_ASC_NODE = 97.4110
ARG_OF_PERICENTER = 95.5865
MEAN_ANOMALY   = 326.8431

EPHEMERIS_TYPE = 0
CLASSIFICATION_TYPE = U
NORAD_CAT_ID   = 67568
ELEMENT_SET_NO = 999
REV_AT_EPOCH   = 319
BSTAR          = .47566E-3
MEAN_MOTION_DOT = .91659E-3
MEAN_MOTION_DDOT = 0

CCSDS_OMM_VERS = 2.0
CREATION_DATE  = 
ORIGINATOR     = 

OBJECT_NAME    = STARLINK-36575
OBJECT_ID      = 2026-016J
CENTER_NAME    = EARTH
REF_FRAME      = TEME
TIME_SYSTEM    = UTC
MEAN_ELEMENT_THEORY = SGP/SGP4

EPOCH          = 2026-02-07T12:00:00.998784
MEAN_MOTION    = 15.80721472
ECCENTRICITY   = .0000904
INCLINATION    = 97.2819
RA_OF_ASC_NODE = 97.4158
ARG_OF_PERICENTER = 90.0325
MEAN_ANOMALY   = 339.2894

EPHEMERIS_TYPE = 0
CLASSIFICATION_TYPE = U
NORAD_CAT_ID   = 67569
ELEMENT_SET_NO = 999
REV_AT_EPOCH   = 319
BSTAR          = .10818E-2
MEAN_MOTION_DOT = .211249E-2
MEAN_MOTION_DDOT = 0

CCSDS_OMM_VERS = 2.0
CREATION_DATE  = 
ORIGINATOR     = 

OBJECT_NAME    = STARLINK-36562
OBJECT_ID      = 2026-016K
CENTER_NAME    = EARTH
REF_FRAME      = TEME
TIME_SYSTEM    = UTC
MEAN_ELEMENT_THEORY = SGP/SGP4

EPOCH          = 2026-02-07T12:00:00.998784
MEAN_MOTION    = 15.80693598
ECCENTRICITY   = .0001153
INCLINATION    = 97.2815
RA_OF_ASC_NODE = 97.4171
ARG_OF_PERICENTER = 88.9418
MEAN_ANOMALY   = 345.5551

EPHEMERIS_TYPE = 0
CLASSIFICATION_TYPE = U
NORAD_CAT_ID   = 67570
ELEMENT_SET_NO = 999
REV_AT_EPOCH   = 319
BSTAR          = .133E-2
MEAN_MOTION_DOT = .260918E-2
MEAN_MOTION_DDOT = 0

CCSDS_OMM_VERS = 2.0
CREATION_DATE  = 
ORIGINATOR     = 

OBJECT_NAME    = STARLINK-36578
OBJECT_ID      = 2026-016L
CENTER_NAME    = EARTH
REF_FRAME      = TEME
TIME_SYSTEM    = UTC
MEAN_ELEMENT_THEORY = SGP/SGP4

EPOCH          = 2026-02-07T12:00:00.998784
MEAN_MOTION    = 15.80700885
ECCENTRICITY   = .0001381
INCLINATION    = 97.2816
RA_OF_ASC_NODE = 97.4197
ARG_OF_PERICENTER = 121.1014
MEAN_ANOMALY   = 319.3335

EPHEMERIS_TYPE = 0
CLASSIFICATION_TYPE = U
NORAD_CAT_ID   = 67571
ELEMENT_SET_NO = 999
REV_AT_EPOCH   = 317
BSTAR          = .10806E-2
MEAN_MOTION_DOT = .210821E-2
MEAN_MOTION_DDOT = 0

